start=new Date('2023-06-14T00:00:00.000Z').valueOf();
sats=[{"APOAPSIS":"554.103","TIME_SYSTEM":"UTC","LAUNCH_DATE":"2023-03-24","MEAN_MOTION_DDOT":"0.0000000000000","COUNTRY_CODE":"US","NORAD_CAT_ID":"55987","EPOCH":"2023-06-13T20:17:48.813504","BSTAR":"0.00008611100000","OBJECT_NAME":"STARLINK-5915","TLE_LINE1":"1 55987U 23042B   23164.84570386  .00001018  00000-0  86111-4 0  9993","MEAN_ANOMALY":"89.5916","FILE":"3932371","REF_FRAME":"TEME","PERIOD":"95.713","EPHEMERIS_TYPE":"0","SEMIMAJOR_AXIS":"6931.204","OBJECT_ID":"2023-042B","MEAN_MOTION":"15.04491489","MEAN_ELEMENT_THEORY":"SGP4","INCLINATION":"43.0026","MEAN_MOTION_DOT":"0.00001018","GP_ID":"233876167","OBJECT_TYPE":"PAYLOAD","REV_AT_EPOCH":"1250","RCS_SIZE":"LARGE","SITE":"AFETR","TLE_LINE2":"2 55987  43.0026  89.3453 0001492 270.4756  89.5916 15.04491489 12501","ECCENTRICITY":"0.00014920","CLASSIFICATION_TYPE":"U","PERIAPSIS":"552.035","ARG_OF_PERICENTER":"270.4756","DECAY_DATE":null,"ELEMENT_SET_NO":"999","CENTER_NAME":"EARTH","RA_OF_ASC_NODE":"89.3453"},{"RA_OF_ASC_NODE":"89.4580","CENTER_NAME":"EARTH","ECCENTRICITY":"0.00013450","TLE_LINE2":"2 55988  43.0012  89.4580 0001345 268.4007  91.6682 15.04495115 12506","SITE":"AFETR","DECAY_DATE":null,"ELEMENT_SET_NO":"999","ARG_OF_PERICENTER":"268.4007","PERIAPSIS":"552.126","CLASSIFICATION_TYPE":"U","GP_ID":"233874919","MEAN_MOTION_DOT":"0.00005783","MEAN_ELEMENT_THEORY":"SGP4","INCLINATION":"43.0012","RCS_SIZE":"LARGE","REV_AT_EPOCH":"1250","OBJECT_TYPE":"PAYLOAD","OBJECT_ID":"2023-042C","MEAN_MOTION":"15.04495115","SEMIMAJOR_AXIS":"6931.193","REF_FRAME":"TEME","PERIOD":"95.713","FILE":"3932371","EPHEMERIS_TYPE":"0","EPOCH":"2023-06-13T20:39:40.667040","BSTAR":"0.00042056000000","COUNTRY_CODE":"US","NORAD_CAT_ID":"55988","TLE_LINE1":"1 55988U 23042C   23164.86088735  .00005783  00000-0  42056-3 0  9990","MEAN_ANOMALY":"91.6682","OBJECT_NAME":"STARLINK-5916","TIME_SYSTEM":"UTC","APOAPSIS":"553.990","MEAN_MOTION_DDOT":"0.0000000000000","LAUNCH_DATE":"2023-03-24"},{"RA_OF_ASC_NODE":"89.4227","CENTER_NAME":"EARTH","ECCENTRICITY":"0.00013330","TLE_LINE2":"2 55989  43.0029  89.4227 0001333 274.3895  85.6796 15.04486335 12504","SITE":"AFETR","DECAY_DATE":null,"ELEMENT_SET_NO":"999","PERIAPSIS":"552.161","CLASSIFICATION_TYPE":"U","ARG_OF_PERICENTER":"274.3895","MEAN_MOTION_DOT":"0.00000005","GP_ID":"233875168","INCLINATION":"43.0029","MEAN_ELEMENT_THEORY":"SGP4","REV_AT_EPOCH":"1250","RCS_SIZE":"LARGE","OBJECT_TYPE":"PAYLOAD","MEAN_MOTION":"15.04486335","OBJECT_ID":"2023-042D","SEMIMAJOR_AXIS":"6931.220","PERIOD":"95.714","REF_FRAME":"TEME","FILE":"3932371","EPHEMERIS_TYPE":"0","BSTAR":"0.00001495500000","EPOCH":"2023-06-13T20:32:45.793248","COUNTRY_CODE":"US","NORAD_CAT_ID":"55989","MEAN_ANOMALY":"85.6796","TLE_LINE1":"1 55989U 23042D   23164.85608557  .00000005  00000-0  14955-4 0  9990","OBJECT_NAME":"STARLINK-5947","TIME_SYSTEM":"UTC","APOAPSIS":"554.009","MEAN_MOTION_DDOT":"0.0000000000000","LAUNCH_DATE":"2023-03-24"},{"TLE_LINE1":"1 55990U 23042E   23164.26673889  .00000247  00000-0  31966-4 0  9996","OBJECT_NAME":"STARLINK-5946","MEAN_ANOMALY":"99.0181","COUNTRY_CODE":"US","NORAD_CAT_ID":"55990","BSTAR":"0.00003196600000","EPOCH":"2023-06-13T06:24:06.240096","LAUNCH_DATE":"2023-03-24","MEAN_MOTION_DDOT":"0.0000000000000","TIME_SYSTEM":"UTC","APOAPSIS":"554.055","OBJECT_ID":"2023-042E","MEAN_MOTION":"15.04496112","SEMIMAJOR_AXIS":"6931.190","EPHEMERIS_TYPE":"0","FILE":"3932134","REF_FRAME":"TEME","PERIOD":"95.713","PERIAPSIS":"552.055","ARG_OF_PERICENTER":"261.0499","CLASSIFICATION_TYPE":"U","ELEMENT_SET_NO":"999","DECAY_DATE":null,"TLE_LINE2":"2 55990  43.0028  92.7409 0001443 261.0499  99.0181 15.04496112 12410","SITE":"AFETR","ECCENTRICITY":"0.00014430","OBJECT_TYPE":"PAYLOAD","REV_AT_EPOCH":"1241","RCS_SIZE":"LARGE","MEAN_ELEMENT_THEORY":"SGP4","INCLINATION":"43.0028","GP_ID":"233842709","MEAN_MOTION_DOT":"0.00000247","RA_OF_ASC_NODE":"92.7409","CENTER_NAME":"EARTH"},{"COUNTRY_CODE":"US","NORAD_CAT_ID":"55991","EPOCH":"2023-06-13T20:06:15.307488","BSTAR":"0.00003616200000","TLE_LINE1":"1 55991U 23042F   23164.83767717  .00000307  00000-0  36162-4 0  9994","MEAN_ANOMALY":"95.1015","OBJECT_NAME":"STARLINK-5948","TIME_SYSTEM":"UTC","APOAPSIS":"554.168","LAUNCH_DATE":"2023-03-24","MEAN_MOTION_DDOT":"0.0000000000000","MEAN_MOTION":"15.04487626","OBJECT_ID":"2023-042F","SEMIMAJOR_AXIS":"6931.216","FILE":"3932371","REF_FRAME":"TEME","PERIOD":"95.714","EPHEMERIS_TYPE":"0","TLE_LINE2":"2 55991  43.0021  89.2842 0001568 264.9649  95.1015 15.04487626 12506","SITE":"AFETR","ECCENTRICITY":"0.00015680","PERIAPSIS":"551.994","ARG_OF_PERICENTER":"264.9649","CLASSIFICATION_TYPE":"U","ELEMENT_SET_NO":"999","DECAY_DATE":null,"INCLINATION":"43.0021","MEAN_ELEMENT_THEORY":"SGP4","MEAN_MOTION_DOT":"0.00000307","GP_ID":"233876668","OBJECT_TYPE":"PAYLOAD","REV_AT_EPOCH":"1250","RCS_SIZE":"LARGE","RA_OF_ASC_NODE":"89.2842","CENTER_NAME":"EARTH"},{"LAUNCH_DATE":"2023-03-24","MEAN_MOTION_DDOT":"0.0000000000000","TIME_SYSTEM":"UTC","APOAPSIS":"553.963","TLE_LINE1":"1 55992U 23042G   23164.25221674  .00000894  00000-0  77375-4 0  9990","MEAN_ANOMALY":"90.7246","OBJECT_NAME":"STARLINK-5962","COUNTRY_CODE":"US","NORAD_CAT_ID":"55992","EPOCH":"2023-06-13T06:03:11.526336","BSTAR":"0.00007737500000","EPHEMERIS_TYPE":"0","FILE":"3932134","REF_FRAME":"TEME","PERIOD":"95.714","MEAN_MOTION":"15.04489353","OBJECT_ID":"2023-042G","SEMIMAJOR_AXIS":"6931.211","OBJECT_TYPE":"PAYLOAD","RCS_SIZE":"LARGE","REV_AT_EPOCH":"1241","MEAN_ELEMENT_THEORY":"SGP4","INCLINATION":"43.0024","GP_ID":"233844211","MEAN_MOTION_DOT":"0.00000894","CLASSIFICATION_TYPE":"U","PERIAPSIS":"552.188","ARG_OF_PERICENTER":"269.3450","DECAY_DATE":null,"ELEMENT_SET_NO":"999","TLE_LINE2":"2 55992  43.0024  92.6334 0001280 269.3450  90.7246 15.04489353 12410","SITE":"AFETR","ECCENTRICITY":"0.00012800","CENTER_NAME":"EARTH","RA_OF_ASC_NODE":"92.6334"},{"MEAN_MOTION_DDOT":"0.0000000000000","LAUNCH_DATE":"2023-03-24","APOAPSIS":"554.110","TIME_SYSTEM":"UTC","OBJECT_NAME":"STARLINK-5969","TLE_LINE1":"1 55993U 23042H   23164.25976859  .00000927  00000-0  79705-4 0  9999","MEAN_ANOMALY":"94.7117","BSTAR":"0.00007970500000","EPOCH":"2023-06-13T06:14:04.006176","COUNTRY_CODE":"US","NORAD_CAT_ID":"55993","EPHEMERIS_TYPE":"0","REF_FRAME":"TEME","PERIOD":"95.713","FILE":"3932134","SEMIMAJOR_AXIS":"6931.200","MEAN_MOTION":"15.04492836","OBJECT_ID":"2023-042H","RCS_SIZE":"LARGE","REV_AT_EPOCH":"1241","OBJECT_TYPE":"PAYLOAD","MEAN_MOTION_DOT":"0.00000927","GP_ID":"233842959","MEAN_ELEMENT_THEORY":"SGP4","INCLINATION":"43.0029","ELEMENT_SET_NO":"999","DECAY_DATE":null,"ARG_OF_PERICENTER":"265.3554","PERIAPSIS":"552.020","CLASSIFICATION_TYPE":"U","ECCENTRICITY":"0.00015080","SITE":"AFETR","TLE_LINE2":"2 55993  43.0029  92.6891 0001508 265.3554  94.7117 15.04492836 12419","CENTER_NAME":"EARTH","RA_OF_ASC_NODE":"92.6891"},{"SITE":"AFETR","TLE_LINE2":"2 55994  43.0018  89.3251 0001329 267.3883  92.6807 15.04486138 12500","ECCENTRICITY":"0.00013290","CLASSIFICATION_TYPE":"U","PERIAPSIS":"552.164","ARG_OF_PERICENTER":"267.3883","ELEMENT_SET_NO":"999","DECAY_DATE":null,"MEAN_ELEMENT_THEORY":"SGP4","INCLINATION":"43.0018","GP_ID":"233875921","MEAN_MOTION_DOT":"0.00001527","OBJECT_TYPE":"PAYLOAD","RCS_SIZE":"LARGE","REV_AT_EPOCH":"1250","RA_OF_ASC_NODE":"89.3251","CENTER_NAME":"EARTH","NORAD_CAT_ID":"55994","COUNTRY_CODE":"US","BSTAR":"0.00012187000000","EPOCH":"2023-06-13T20:13:30.959616","TLE_LINE1":"1 55994U 23042J   23164.84271944  .00001527  00000-0  12187-3 0  9995","OBJECT_NAME":"STARLINK-5956","MEAN_ANOMALY":"92.6807","APOAPSIS":"554.007","TIME_SYSTEM":"UTC","LAUNCH_DATE":"2023-03-24","MEAN_MOTION_DDOT":"0.0000000000000","SEMIMAJOR_AXIS":"6931.220","OBJECT_ID":"2023-042J","MEAN_MOTION":"15.04486138","FILE":"3932371","PERIOD":"95.714","REF_FRAME":"TEME","EPHEMERIS_TYPE":"0"},{"REV_AT_EPOCH":"1250","RCS_SIZE":"LARGE","OBJECT_TYPE":"PAYLOAD","MEAN_MOTION_DOT":"0.00000338","GP_ID":"233876168","INCLINATION":"43.0027","MEAN_ELEMENT_THEORY":"SGP4","ELEMENT_SET_NO":"999","DECAY_DATE":null,"PERIAPSIS":"552.177","CLASSIFICATION_TYPE":"U","ARG_OF_PERICENTER":"273.9971","ECCENTRICITY":"0.00013380","SITE":"AFETR","TLE_LINE2":"2 55995  43.0027  89.3927 0001338 273.9971  86.0719 15.04480052 12500","CENTER_NAME":"EARTH","RA_OF_ASC_NODE":"89.3927","MEAN_MOTION_DDOT":"0.0000000000000","LAUNCH_DATE":"2023-03-24","APOAPSIS":"554.032","TIME_SYSTEM":"UTC","TLE_LINE1":"1 55995U 23042K   23164.85209564  .00000338  00000-0  38343-4 0  9998","OBJECT_NAME":"STARLINK-5957","MEAN_ANOMALY":"86.0719","BSTAR":"0.00003834300000","EPOCH":"2023-06-13T20:27:01.063296","COUNTRY_CODE":"US","NORAD_CAT_ID":"55995","EPHEMERIS_TYPE":"0","PERIOD":"95.714","REF_FRAME":"TEME","FILE":"3932371","SEMIMAJOR_AXIS":"6931.239","MEAN_MOTION":"15.04480052","OBJECT_ID":"2023-042K"},{"LAUNCH_DATE":"2023-03-24","MEAN_MOTION_DDOT":"0.0000000000000","TIME_SYSTEM":"UTC","APOAPSIS":"554.078","TLE_LINE1":"1 55996U 23042L   23164.83076833 -.00000030  00000-0  12441-4 0  9999","MEAN_ANOMALY":"88.8832","OBJECT_NAME":"STARLINK-5903","NORAD_CAT_ID":"55996","COUNTRY_CODE":"US","EPOCH":"2023-06-13T19:56:18.383712","BSTAR":"0.00001244100000","EPHEMERIS_TYPE":"0","FILE":"3932371","PERIOD":"95.713","REF_FRAME":"TEME","OBJECT_ID":"2023-042L","MEAN_MOTION":"15.04492241","SEMIMAJOR_AXIS":"6931.202","OBJECT_TYPE":"PAYLOAD","RCS_SIZE":"LARGE","REV_AT_EPOCH":"1250","MEAN_ELEMENT_THEORY":"SGP4","INCLINATION":"43.0024","MEAN_MOTION_DOT":"-0.00000030","GP_ID":"233874920","PERIAPSIS":"552.055","ARG_OF_PERICENTER":"271.1844","CLASSIFICATION_TYPE":"U","ELEMENT_SET_NO":"999","DECAY_DATE":null,"TLE_LINE2":"2 55996  43.0024  89.2356 0001459 271.1844  88.8832 15.04492241 12505","SITE":"AFETR","ECCENTRICITY":"0.00014590","CENTER_NAME":"EARTH","RA_OF_ASC_NODE":"89.2356"}];
